
# Worst residual: 12.12 km
# MJD 60714.000000 (2025 Feb  8  0:00)
2000-045A = NORAD 26463 = Cluster II-FM5 Rumba
1 26463U 00045A   25039.49919926  .00000000  00000-0  00000-0 0 26166
2 26463 153.7311 052.3259 8965052 269.4428 340.7862 00.42931122    04

# Worst residual: 4.86 km
# MJD 60715.000000 (2025 Feb  9  0:00)
2000-045A = NORAD 26463 = Cluster II-FM5 Rumba
1 26463U 00045A   25040.49919926  .00000000  00000-0  00000-0 0 26168
2 26463 153.7443 052.5641 8968568 269.6895 135.2215 00.42900823    05

# Worst residual: 9.34 km
# MJD 60716.000000 (2025 Feb 10  0:00)
2000-045A = NORAD 26463 = Cluster II-FM5 Rumba
1 26463U 00045A   25041.49919926  .00000000  00000-0  00000-0 0 26169
2 26463 153.7466 052.5602 8969587 269.7175 289.6199 00.42902501    01

# Worst residual: 11.25 km
# MJD 60717.000000 (2025 Feb 11  0:00)
2000-045A = NORAD 26463 = Cluster II-FM5 Rumba
1 26463U 00045A   25042.49919926  .00000000  00000-0  00000-0 0 26160
2 26463 153.7484 052.8728 8970754 270.0313 084.0500 00.42891100    05

# Worst residual: 7.33 km
# MJD 60718.000000 (2025 Feb 12  0:00)
2000-045A = NORAD 26463 = Cluster II-FM5 Rumba
1 26463U 00045A   25043.49919926  .00000000  00000-0  00000-0 0 26161
2 26463 153.7425 052.8083 8973357 269.9940 238.4925 00.42898184    04

# Worst residual: 13.49 km
# MJD 60719.000000 (2025 Feb 13  0:00)
2000-045A = NORAD 26463 = Cluster II-FM5 Rumba
1 26463U 00045A   25044.49919926  .00000000  00000-0  00000-0 0 26162
2 26463 153.7325 053.0030 8973376 270.1963 032.9295 00.42888310    05

# Worst residual: 5.80 km
# MJD 60720.000000 (2025 Feb 14  0:00)
2000-045A = NORAD 26463 = Cluster II-FM5 Rumba
1 26463U 00045A   25045.49919926  .00000000  00000-0  00000-0 0 26163
2 26463 153.7334 053.1043 8975378 270.3080 187.3818 00.42898775    08

# Worst residual: 17.74 km
# MJD 60721.000000 (2025 Feb 15  0:00)
2000-045A = NORAD 26463 = Cluster II-FM5 Rumba
1 26463U 00045A   25046.49919926  .00000000  00000-0  00000-0 0 26164
2 26463 153.7253 053.2604 8974378 270.4688 341.8293 00.42883137    06

# Worst residual: 4.64 km
# MJD 60722.000000 (2025 Feb 16  0:00)
2000-045A = NORAD 26463 = Cluster II-FM5 Rumba
1 26463U 00045A   25047.49919926  .00000000  00000-0  00000-0 0 26165
2 26463 153.7271 053.4438 8976034 270.6655 136.2670 00.42901683    02

# Worst residual: 8.83 km
# MJD 60723.000000 (2025 Feb 17  0:00)
2000-045A = NORAD 26463 = Cluster II-FM5 Rumba
1 26463U 00045A   25048.49919926  .00000000  00000-0  00000-0 0 26166
2 26463 153.7281 053.5072 8974070 270.7430 290.7011 00.42885594    05

# Worst residual: 9.05 km
# MJD 60724.000000 (2025 Feb 18  0:00)
2000-045A = NORAD 26463 = Cluster II-FM5 Rumba
1 26463U 00045A   25049.49919926  .00000000  00000-0  00000-0 0 26167
2 26463 153.7233 053.8030 8975739 271.0550 085.1316 00.42905139    01

# Worst residual: 3.41 km
# MJD 60725.000000 (2025 Feb 19  0:00)
2000-045A = NORAD 26463 = Cluster II-FM5 Rumba
1 26463U 00045A   25050.49919926  .00000000  00000-0  00000-0 0 26169
2 26463 153.7204 053.8837 8977395 271.1614 239.5227 00.42901029    06

# Worst residual: 11.99 km
# MJD 60726.000000 (2025 Feb 20  0:00)
2000-045A = NORAD 26463 = Cluster II-FM5 Rumba
1 26463U 00045A   25051.49919926  .00000000  00000-0  00000-0 0 26160
2 26463 153.7128 054.0884 8977105 271.3839 033.9742 00.42922615    08

# Worst residual: 5.18 km
# MJD 60727.000000 (2025 Feb 21  0:00)
2000-045A = NORAD 26463 = Cluster II-FM5 Rumba
1 26463U 00045A   25052.49919926  .00000000  00000-0  00000-0 0 26161
2 26463 153.7154 054.2437 8981527 271.5513 188.3678 00.42905840    01

# Worst residual: 10.16 km
# MJD 60728.000000 (2025 Feb 22  0:00)
2000-045A = NORAD 26463 = Cluster II-FM5 Rumba
1 26463U 00045A   25053.49919926  .00000000  00000-0  00000-0 0 26162
2 26463 153.7088 054.3988 8981158 271.7231 342.7973 00.42924793    00

# Worst residual: 6.50 km
# MJD 60729.000000 (2025 Feb 23  0:00)
2000-045A = NORAD 26463 = Cluster II-FM5 Rumba
1 26463U 00045A   25054.49919926  .00000000  00000-0  00000-0 0 26163
2 26463 153.7140 054.5797 8985061 271.9108 137.2462 00.42905792    09

# Worst residual: 8.93 km
# MJD 60730.000000 (2025 Feb 24  0:00)
2000-045A = NORAD 26463 = Cluster II-FM5 Rumba
1 26463U 00045A   25055.49919926  .00000000  00000-0  00000-0 0 26164
2 26463 153.7156 054.5983 8986014 271.9511 291.7220 00.42903794    08

# Worst residual: 11.21 km
# MJD 60731.000000 (2025 Feb 25  0:00)
2000-045A = NORAD 26463 = Cluster II-FM5 Rumba
1 26463U 00045A   25056.49919926  .00000000  00000-0  00000-0 0 26165
2 26463 153.7105 054.9269 8987193 272.2765 086.1606 00.42894691    06

# Worst residual: 5.17 km
# MJD 60732.000000 (2025 Feb 26  0:00)
2000-045A = NORAD 26463 = Cluster II-FM5 Rumba
1 26463U 00045A   25057.49919926  .00000000  00000-0  00000-0 0 26166
2 26463 153.7068 055.0560 8989664 272.4100 240.6570 00.42903041    07
